CCSDS_OMM_VERS = 2.0
CREATION_DATE  = 
ORIGINATOR     = 

OBJECT_NAME    = KUIPER-00268
OBJECT_ID      = 2026-030AC
CENTER_NAME    = EARTH
REF_FRAME      = TEME
TIME_SYSTEM    = UTC
MEAN_ELEMENT_THEORY = SGP/SGP4

EPOCH          = 2026-02-22T06:00:01.999296
MEAN_MOTION    = 15.35355899
ECCENTRICITY   = .0001911
INCLINATION    = 51.8848
RA_OF_ASC_NODE = 293.5525
ARG_OF_PERICENTER = 22.9252
MEAN_ANOMALY   = 234.5480

EPHEMERIS_TYPE = 0
CLASSIFICATION_TYPE = U
NORAD_CAT_ID   = 67790
ELEMENT_SET_NO = 999
REV_AT_EPOCH   = 130
BSTAR          = .14089E-3
MEAN_MOTION_DOT = .4533E-4
MEAN_MOTION_DDOT = 0

CCSDS_OMM_VERS = 2.0
CREATION_DATE  = 
ORIGINATOR     = 

OBJECT_NAME    = KUIPER-00270
OBJECT_ID      = 2026-030AD
CENTER_NAME    = EARTH
REF_FRAME      = TEME
TIME_SYSTEM    = UTC
MEAN_ELEMENT_THEORY = SGP/SGP4

EPOCH          = 2026-02-22T06:00:01.999296
MEAN_MOTION    = 15.33948696
ECCENTRICITY   = .001
INCLINATION    = 51.8809
RA_OF_ASC_NODE = 293.6486
ARG_OF_PERICENTER = 10.7052
MEAN_ANOMALY   = 197.5837

EPHEMERIS_TYPE = 0
CLASSIFICATION_TYPE = U
NORAD_CAT_ID   = 67791
ELEMENT_SET_NO = 999
REV_AT_EPOCH   = 143
BSTAR          = .2391E-3
MEAN_MOTION_DOT = .761E-4
MEAN_MOTION_DDOT = 0

CCSDS_OMM_VERS = 2.0
CREATION_DATE  = 
ORIGINATOR     = 

OBJECT_NAME    = KUIPER-00274
OBJECT_ID      = 2026-030AE
CENTER_NAME    = EARTH
REF_FRAME      = TEME
TIME_SYSTEM    = UTC
MEAN_ELEMENT_THEORY = SGP/SGP4

EPOCH          = 2026-02-22T06:00:01.999296
MEAN_MOTION    = 15.32276810
ECCENTRICITY   = .0017296
INCLINATION    = 51.8820
RA_OF_ASC_NODE = 293.7541
ARG_OF_PERICENTER = 22.5417
MEAN_ANOMALY   = 135.5491

EPHEMERIS_TYPE = 0
CLASSIFICATION_TYPE = U
NORAD_CAT_ID   = 67792
ELEMENT_SET_NO = 999
REV_AT_EPOCH   = 170
BSTAR          = .34215E-3
MEAN_MOTION_DOT = .10507E-3
MEAN_MOTION_DDOT = 0

CCSDS_OMM_VERS = 2.0
CREATION_DATE  = 
ORIGINATOR     = 

OBJECT_NAME    = KUIPER-00275
OBJECT_ID      = 2026-030AF
CENTER_NAME    = EARTH
REF_FRAME      = TEME
TIME_SYSTEM    = UTC
MEAN_ELEMENT_THEORY = SGP/SGP4

EPOCH          = 2026-02-22T06:00:01.999296
MEAN_MOTION    = 15.34228497
ECCENTRICITY   = .0008202
INCLINATION    = 51.8842
RA_OF_ASC_NODE = 293.6357
ARG_OF_PERICENTER = 9.5669
MEAN_ANOMALY   = 207.5718

EPHEMERIS_TYPE = 0
CLASSIFICATION_TYPE = U
NORAD_CAT_ID   = 67793
ELEMENT_SET_NO = 999
REV_AT_EPOCH   = 130
BSTAR          = .19196E-3
MEAN_MOTION_DOT = .6087E-4
MEAN_MOTION_DDOT = 0

CCSDS_OMM_VERS = 2.0
CREATION_DATE  = 
ORIGINATOR     = 

OBJECT_NAME    = KUIPER-00276
OBJECT_ID      = 2026-030AG
CENTER_NAME    = EARTH
REF_FRAME      = TEME
TIME_SYSTEM    = UTC
MEAN_ELEMENT_THEORY = SGP/SGP4

EPOCH          = 2026-02-22T06:00:01.999296
MEAN_MOTION    = 15.31681616
ECCENTRICITY   = .0018615
INCLINATION    = 51.8816
RA_OF_ASC_NODE = 293.7704
ARG_OF_PERICENTER = 18.7238
MEAN_ANOMALY   = 130.8502

EPHEMERIS_TYPE = 0
CLASSIFICATION_TYPE = U
NORAD_CAT_ID   = 67794
ELEMENT_SET_NO = 999
REV_AT_EPOCH   = 242
BSTAR          = .43196E-4
MEAN_MOTION_DOT = .969E-5
MEAN_MOTION_DDOT = 0

CCSDS_OMM_VERS = 2.0
CREATION_DATE  = 
ORIGINATOR     = 

OBJECT_NAME    = KUIPER-00279
OBJECT_ID      = 2026-030AH
CENTER_NAME    = EARTH
REF_FRAME      = TEME
TIME_SYSTEM    = UTC
MEAN_ELEMENT_THEORY = SGP/SGP4

EPOCH          = 2026-02-22T06:00:01.999296
MEAN_MOTION    = 15.34656543
ECCENTRICITY   = .0006125
INCLINATION    = 51.8800
RA_OF_ASC_NODE = 293.6011
ARG_OF_PERICENTER = 7.1442
MEAN_ANOMALY   = 224.1297

EPHEMERIS_TYPE = 0
CLASSIFICATION_TYPE = U
NORAD_CAT_ID   = 67795
ELEMENT_SET_NO = 999
REV_AT_EPOCH   = 130
BSTAR          = .17121E-3
MEAN_MOTION_DOT = .5463E-4
MEAN_MOTION_DDOT = 0

CCSDS_OMM_VERS = 2.0
CREATION_DATE  = 
ORIGINATOR     = 

OBJECT_NAME    = CREW DRAGON 12
OBJECT_ID      = 2026-031A
CENTER_NAME    = EARTH
REF_FRAME      = TEME
TIME_SYSTEM    = UTC
MEAN_ELEMENT_THEORY = SGP/SGP4

EPOCH          = 2026-02-21T18:22:01.806816
MEAN_MOTION    = 15.48189327
ECCENTRICITY   = .00085118
INCLINATION    = 51.6320
RA_OF_ASC_NODE = 151.0701
ARG_OF_PERICENTER = 119.8639
MEAN_ANOMALY   = 240.3195

EPHEMERIS_TYPE = 0
CLASSIFICATION_TYPE = U
NORAD_CAT_ID   = 67796
ELEMENT_SET_NO = 999
REV_AT_EPOCH   = 55383
BSTAR          = .20704396E-3
MEAN_MOTION_DOT = .10666E-3
MEAN_MOTION_DDOT = 0

