KUIPER-00268            
1 67790U 26030AC  26053.25002314  .00004533  00000+0  14089-3 0  9992
2 67790  51.8848 293.5525 0001911  22.9252 234.5480 15.35355899  1303
KUIPER-00270            
1 67791U 26030AD  26053.25002314  .00007610  00000+0  23910-3 0  9995
2 67791  51.8809 293.6486 0010000  10.7052 197.5837 15.33948696  1439
KUIPER-00274            
1 67792U 26030AE  26053.25002314  .00010507  00000+0  34215-3 0  9995
2 67792  51.8820 293.7541 0017296  22.5417 135.5491 15.32276810  1705
KUIPER-00275            
1 67793U 26030AF  26053.25002314  .00006087  00000+0  19196-3 0  9995
2 67793  51.8842 293.6357 0008202   9.5669 207.5718 15.34228497  1303
KUIPER-00276            
1 67794U 26030AG  26053.25002314  .00000969  00000+0  43196-4 0  9997
2 67794  51.8816 293.7704 0018615  18.7238 130.8502 15.31681616  2421
KUIPER-00279            
1 67795U 26030AH  26053.25002314  .00005463  00000+0  17121-3 0  9990
2 67795  51.8800 293.6011 0006125   7.1442 224.1297 15.34656543  1305
CREW DRAGON 12          
1 67796U 26031A   26052.76529869  .00010666  00000+0  20704-3 0  9998
2 67796  51.6320 151.0701 0008511 119.8639 240.3195 15.48189327553837
